{"fetched_at":"2026-07-10T07:58:43.188Z","source":"https://celestrak.org/NORAD/elements/gp.php?GROUP=planet&FORMAT=JSON","constellation":"superdove","records":[{"OBJECT_NAME":"FLOCK 4Q-16","OBJECT_ID":"2023-174R","EPOCH":"2026-07-09T04:28:13.498176","CLASSIFICATION_TYPE":"U","MEAN_MOTION":15.50194371,"ECCENTRICITY":0.00070189,"INCLINATION":97.3825,"RA_OF_ASC_NODE":278.8187,"ARG_OF_PERICENTER":94.1901,"MEAN_ANOMALY":266.0153,"EPHEMERIS_TYPE":0,"NORAD_CAT_ID":58271,"ELEMENT_SET_NO":999,"REV_AT_EPOCH":14898,"BSTAR":0.0002561243,"MEAN_MOTION_DOT":0.00014376,"MEAN_MOTION_DDOT":0},{"OBJECT_NAME":"FLOCK 4Q-11","OBJECT_ID":"2023-174T","EPOCH":"2026-07-09T13:09:40.699008","CLASSIFICATION_TYPE":"U","MEAN_MOTION":15.50689875,"ECCENTRICITY":0.0006749,"INCLINATION":97.3857,"RA_OF_ASC_NODE":279.8177,"ARG_OF_PERICENTER":88.8488,"MEAN_ANOMALY":271.3536,"EPHEMERIS_TYPE":0,"NORAD_CAT_ID":58273,"ELEMENT_SET_NO":999,"REV_AT_EPOCH":14905,"BSTAR":0.00034296,"MEAN_MOTION_DOT":0.00019635,"MEAN_MOTION_DDOT":0},{"OBJECT_NAME":"FLOCK 4Q-28","OBJECT_ID":"2023-174AA","EPOCH":"2026-07-09T16:28:59.325600","CLASSIFICATION_TYPE":"U","MEAN_MOTION":15.5653002,"ECCENTRICITY":0.0005325,"INCLINATION":97.388,"RA_OF_ASC_NODE":282.6446,"ARG_OF_PERICENTER":80.5118,"MEAN_ANOMALY":279.6738,"EPHEMERIS_TYPE":0,"NORAD_CAT_ID":58280,"ELEMENT_SET_NO":999,"REV_AT_EPOCH":14924,"BSTAR":0.0003248,"MEAN_MOTION_DOT":0.00022974,"MEAN_MOTION_DDOT":0},{"OBJECT_NAME":"FLOCK 4Q-27","OBJECT_ID":"2023-174AC","EPOCH":"2026-07-09T01:06:54.728928","CLASSIFICATION_TYPE":"U","MEAN_MOTION":15.5669026,"ECCENTRICITY":0.00044859,"INCLINATION":97.3807,"RA_OF_ASC_NODE":281.3932,"ARG_OF_PERICENTER":86.5235,"MEAN_ANOMALY":273.6533,"EPHEMERIS_TYPE":0,"NORAD_CAT_ID":58282,"ELEMENT_SET_NO":999,"REV_AT_EPOCH":14915,"BSTAR":0.00033075974,"MEAN_MOTION_DOT":0.00023535,"MEAN_MOTION_DDOT":0},{"OBJECT_NAME":"FLOCK 4Q-7","OBJECT_ID":"2023-174BQ","EPOCH":"2026-07-08T19:25:07.207680","CLASSIFICATION_TYPE":"U","MEAN_MOTION":15.57050195,"ECCENTRICITY":0.00051665,"INCLINATION":97.3904,"RA_OF_ASC_NODE":282.054,"ARG_OF_PERICENTER":66.5295,"MEAN_ANOMALY":293.6503,"EPHEMERIS_TYPE":0,"NORAD_CAT_ID":58318,"ELEMENT_SET_NO":999,"REV_AT_EPOCH":14911,"BSTAR":0.00041052598,"MEAN_MOTION_DOT":0.00029655,"MEAN_MOTION_DDOT":0},{"OBJECT_NAME":"FLOCK 4Q-2","OBJECT_ID":"2023-174BS","EPOCH":"2026-07-09T20:32:15.747648","CLASSIFICATION_TYPE":"U","MEAN_MOTION":15.50662195,"ECCENTRICITY":0.0005336,"INCLINATION":97.3837,"RA_OF_ASC_NODE":279.8486,"ARG_OF_PERICENTER":68.0045,"MEAN_ANOMALY":292.1773,"EPHEMERIS_TYPE":0,"NORAD_CAT_ID":58320,"ELEMENT_SET_NO":999,"REV_AT_EPOCH":14911,"BSTAR":0.00032519,"MEAN_MOTION_DOT":0.00018585,"MEAN_MOTION_DDOT":0},{"OBJECT_NAME":"FLOCK 4Q-9","OBJECT_ID":"2023-174BU","EPOCH":"2026-07-09T00:51:07.866144","CLASSIFICATION_TYPE":"U","MEAN_MOTION":15.51108542,"ECCENTRICITY":0.00062651,"INCLINATION":97.3853,"RA_OF_ASC_NODE":279.1123,"ARG_OF_PERICENTER":71.9131,"MEAN_ANOMALY":288.2802,"EPHEMERIS_TYPE":0,"NORAD_CAT_ID":58322,"ELEMENT_SET_NO":999,"REV_AT_EPOCH":14897,"BSTAR":0.0003667346,"MEAN_MOTION_DOT":0.00021319,"MEAN_MOTION_DDOT":0},{"OBJECT_NAME":"FLOCK 4Q-4","OBJECT_ID":"2023-174BZ","EPOCH":"2026-07-09T01:03:15.723072","CLASSIFICATION_TYPE":"U","MEAN_MOTION":15.49661215,"ECCENTRICITY":0.00062693,"INCLINATION":97.3819,"RA_OF_ASC_NODE":278.2532,"ARG_OF_PERICENTER":92.8458,"MEAN_ANOMALY":267.351,"EPHEMERIS_TYPE":0,"NORAD_CAT_ID":58327,"ELEMENT_SET_NO":999,"REV_AT_EPOCH":14894,"BSTAR":0.00030616781,"MEAN_MOTION_DOT":0.00016885,"MEAN_MOTION_DDOT":0},{"OBJECT_NAME":"FLOCK 4Q-13","OBJECT_ID":"2023-174CA","EPOCH":"2026-07-08T12:36:28.200096","CLASSIFICATION_TYPE":"U","MEAN_MOTION":15.52656455,"ECCENTRICITY":0.00063595,"INCLINATION":97.4002,"RA_OF_ASC_NODE":280.9787,"ARG_OF_PERICENTER":75.7774,"MEAN_ANOMALY":284.4185,"EPHEMERIS_TYPE":0,"NORAD_CAT_ID":58328,"ELEMENT_SET_NO":999,"REV_AT_EPOCH":14898,"BSTAR":0.00030087311,"MEAN_MOTION_DOT":0.00018462,"MEAN_MOTION_DDOT":0},{"OBJECT_NAME":"FLOCK 4BE-18","OBJECT_ID":"2024-149N","EPOCH":"2026-07-08T18:03:13.379616","CLASSIFICATION_TYPE":"U","MEAN_MOTION":15.42597903,"ECCENTRICITY":0.00046731,"INCLINATION":97.3719,"RA_OF_ASC_NODE":273.7169,"ARG_OF_PERICENTER":162.9239,"MEAN_ANOMALY":197.2167,"EPHEMERIS_TYPE":0,"NORAD_CAT_ID":60480,"ELEMENT_SET_NO":999,"REV_AT_EPOCH":10563,"BSTAR":0.00023194885,"MEAN_MOTION_DOT":0.00010003,"MEAN_MOTION_DDOT":0},{"OBJECT_NAME":"FLOCK 4BE-7","OBJECT_ID":"2024-149P","EPOCH":"2026-07-08T18:43:13.149120","CLASSIFICATION_TYPE":"U","MEAN_MOTION":15.41262484,"ECCENTRICITY":0.00038403,"INCLINATION":97.3753,"RA_OF_ASC_NODE":273.0456,"ARG_OF_PERICENTER":166.1793,"MEAN_ANOMALY":193.956,"EPHEMERIS_TYPE":0,"NORAD_CAT_ID":60481,"ELEMENT_SET_NO":999,"REV_AT_EPOCH":10557,"BSTAR":0.00044422698,"MEAN_MOTION_DOT":0.00018416,"MEAN_MOTION_DDOT":0},{"OBJECT_NAME":"FLOCK 4BE-36","OBJECT_ID":"2024-149U","EPOCH":"2026-07-08T18:38:48.136128","CLASSIFICATION_TYPE":"U","MEAN_MOTION":15.43394438,"ECCENTRICITY":0.00042911,"INCLINATION":97.3738,"RA_OF_ASC_NODE":274.473,"ARG_OF_PERICENTER":170.3083,"MEAN_ANOMALY":189.8249,"EPHEMERIS_TYPE":0,"NORAD_CAT_ID":60486,"ELEMENT_SET_NO":999,"REV_AT_EPOCH":10568,"BSTAR":0.00027967151,"MEAN_MOTION_DOT":0.00012409,"MEAN_MOTION_DDOT":0},{"OBJECT_NAME":"FLOCK 4BE-25","OBJECT_ID":"2024-149V","EPOCH":"2026-07-09T04:37:33.544704","CLASSIFICATION_TYPE":"U","MEAN_MOTION":15.39431125,"ECCENTRICITY":0.00032946,"INCLINATION":97.3792,"RA_OF_ASC_NODE":273.5,"ARG_OF_PERICENTER":156.2094,"MEAN_ANOMALY":203.9304,"EPHEMERIS_TYPE":0,"NORAD_CAT_ID":60487,"ELEMENT_SET_NO":999,"REV_AT_EPOCH":10562,"BSTAR":0.000277744,"MEAN_MOTION_DOT":0.00010797,"MEAN_MOTION_DDOT":0},{"OBJECT_NAME":"FLOCK 4BE-31","OBJECT_ID":"2024-149W","EPOCH":"2026-07-09T01:06:53.876160","CLASSIFICATION_TYPE":"U","MEAN_MOTION":15.44977948,"ECCENTRICITY":0.00033799,"INCLINATION":97.3793,"RA_OF_ASC_NODE":275.6689,"ARG_OF_PERICENTER":166.3128,"MEAN_ANOMALY":193.8213,"EPHEMERIS_TYPE":0,"NORAD_CAT_ID":60488,"ELEMENT_SET_NO":999,"REV_AT_EPOCH":10575,"BSTAR":0.00032502679,"MEAN_MOTION_DOT":0.00015235,"MEAN_MOTION_DDOT":0},{"OBJECT_NAME":"FLOCK 4BE-20","OBJECT_ID":"2024-149X","EPOCH":"2026-07-09T04:00:30.104640","CLASSIFICATION_TYPE":"U","MEAN_MOTION":15.38700104,"ECCENTRICITY":0.00044899,"INCLINATION":97.3689,"RA_OF_ASC_NODE":272.2977,"ARG_OF_PERICENTER":169.4129,"MEAN_ANOMALY":190.7212,"EPHEMERIS_TYPE":0,"NORAD_CAT_ID":60489,"ELEMENT_SET_NO":999,"REV_AT_EPOCH":10559,"BSTAR":0.00029163916,"MEAN_MOTION_DOT":0.00011075,"MEAN_MOTION_DDOT":0},{"OBJECT_NAME":"FLOCK 4BE-23","OBJECT_ID":"2024-149Y","EPOCH":"2026-07-09T00:47:36.042720","CLASSIFICATION_TYPE":"U","MEAN_MOTION":15.38255639,"ECCENTRICITY":0.00040844,"INCLINATION":97.3776,"RA_OF_ASC_NODE":272.5504,"ARG_OF_PERICENTER":173.1683,"MEAN_ANOMALY":186.9618,"EPHEMERIS_TYPE":0,"NORAD_CAT_ID":60490,"ELEMENT_SET_NO":999,"REV_AT_EPOCH":10555,"BSTAR":0.00027962152,"MEAN_MOTION_DOT":0.00010461,"MEAN_MOTION_DDOT":0}]}
