FLOCK 4Q-16             
1 58271U 23174R   26190.18626734  .00014376  00000+0  25612-3 0  9994
2 58271  97.3825 278.8187 0007018  94.1901 266.0153 15.50194371148989
FLOCK 4Q-11             
1 58273U 23174T   26190.54838772  .00019635  00000+0  34296-3 0  9994
2 58273  97.3857 279.8177 0006749  88.8488 271.3536 15.50689875149057
FLOCK 4Q-28             
1 58280U 23174AA  26190.68679775  .00022974  00000+0  32480-3 0  9996
2 58280  97.3880 282.6446 0005325  80.5118 279.6738 15.56530020149249
FLOCK 4Q-27             
1 58282U 23174AC  26190.04646677  .00023535  00000+0  33076-3 0  9999
2 58282  97.3807 281.3932 0004485  86.5235 273.6533 15.56690260149158
FLOCK 4Q-7              
1 58318U 23174BQ  26189.80911120  .00029655  00000+0  41053-3 0  9992
2 58318  97.3904 282.0540 0005166  66.5295 293.6503 15.57050195149113
FLOCK 4Q-2              
1 58320U 23174BS  26190.85573782  .00018585  00000+0  32519-3 0  9997
2 58320  97.3837 279.8486 0005336  68.0045 292.1773 15.50662195149118
FLOCK 4Q-9              
1 58322U 23174BU  26190.03550771  .00021319  00000+0  36673-3 0  9996
2 58322  97.3853 279.1123 0006265  71.9131 288.2802 15.51108542148974
FLOCK 4Q-4              
1 58327U 23174BZ  26190.04393198  .00016885  00000+0  30617-3 0  9994
2 58327  97.3819 278.2532 0006269  92.8458 267.3510 15.49661215148942
FLOCK 4Q-13             
1 58328U 23174CA  26189.52532639  .00018462  00000+0  30087-3 0  9995
2 58328  97.4002 280.9787 0006359  75.7774 284.4185 15.52656455148987
FLOCK 4BE-18            
1 60480U 24149N   26189.75223819  .00010003  00000+0  23195-3 0  9997
2 60480  97.3719 273.7169 0004673 162.9239 197.2167 15.42597903105636
FLOCK 4BE-7             
1 60481U 24149P   26189.78001330  .00018416  00000+0  44423-3 0  9996
2 60481  97.3753 273.0456 0003840 166.1793 193.9560 15.41262484105578
FLOCK 4BE-36            
1 60486U 24149U   26189.77694602  .00012409  00000+0  27967-3 0  9990
2 60486  97.3738 274.4730 0004291 170.3083 189.8249 15.43394438105683
FLOCK 4BE-25            
1 60487U 24149V   26190.19274936  .00010797  00000+0  27774-3 0  9997
2 60487  97.3792 273.5000 0003294 156.2094 203.9304 15.39431125105625
FLOCK 4BE-31            
1 60488U 24149W   26190.04645690  .00015235  00000+0  32503-3 0  9999
2 60488  97.3793 275.6689 0003379 166.3128 193.8213 15.44977948105751
FLOCK 4BE-20            
1 60489U 24149X   26190.16701510  .00011075  00000+0  29164-3 0  9994
2 60489  97.3689 272.2977 0004489 169.4129 190.7212 15.38700104105595
FLOCK 4BE-23            
1 60490U 24149Y   26190.03305605  .00010461  00000+0  27962-3 0  9999
2 60490  97.3776 272.5504 0004084 173.1683 186.9618 15.38255639105552
